ONEWEB-0027             
1 45432U 20020J   23319.12810190  .00000120  00000+0  27655-3 0  9992
2 45432  87.9233 193.7136 0001637  87.6673 272.4646 13.17648727181902
ONEWEB-0064             
1 45433U 20020K   23319.24975613  .00000023  00000+0  30144-4 0  9998
2 45433  87.8994 208.8189 0001422  85.8806 274.2484 13.11414989178846
ONEWEB-0018             
1 45434U 20020L   23318.44296615 -.00000315  00000+0 -92497-3 0  9992
2 45434  87.9007 208.9702 0001586  68.7549 291.3748 13.11420231178671
ONEWEB-0083             
1 45435U 20020M   23318.96567588 -.00000425  00000+0 -12343-2 0  9993
2 45435  87.9000 208.8495 0001641  76.3016 283.8294 13.11420566178784
ONEWEB-0095             
1 45436U 20020N   23318.95769344 -.00000459  00000+0 -13323-2 0  9993
2 45436  87.9004 208.8880 0001987  80.2689 279.8663 13.11417545178788
ONEWEB-0092             
1 45437U 20020P   23319.23028588  .00000596  00000+0  16460-2 0  9999
2 45437  87.9001 208.8135 0002025  80.1670 279.9686 13.11419361178933
ONEWEB-0085             
1 45438U 20020Q   23319.26435926 -.00000461  00000+0 -13367-2 0  9997
2 45438  87.9000 208.8123 0001402  72.4487 287.6794 13.11416310178834
ONEWEB-0096             
1 45439U 20020R   23319.11988513 -.00000315  00000+0 -92470-3 0  9998
2 45439  87.8999 208.8148 0001531  65.3170 294.8118 13.11414838178801
